AMOS-17                 
1 44479U 19050A   26062.09069326  .00000093  00000+0  00000+0 0  9994
2 44479   0.0378 291.1894 0001638  44.0056 235.2845  1.00270347 24121
